STARLINK-30494          
1 57970U 23151G   26068.36049035 -.00001272  00000+0 -35691-4 0  9993
2 57970  43.0027 192.4566 0001155 241.5536 118.5200 15.28417441137406
STARLINK-31887          
1 59839U 24097E   26067.97672315  .00000441  00000+0  25548-4 0  9993
2 59839  43.0030 278.7371 0001147 262.3895  97.6826 15.27564903101809
